{"type": "FeatureCollection", "features": [ {"type": "Feature", "properties": {"norad_id": 58662, "name": "TIANMU-1 21", "group": "weather", "lat": 8.207908050174614, "lon": 87.4423073714666, "alt_km": 472.21196557942767, "timestamp": "2025-12-01T03:58:49.196618+00:00", "meta": {"OBJECT_NAME": "TIANMU-1 21", "OBJECT_ID": "2023-208C", "EPOCH": "2025-11-30T20:06:07.459776", "MEAN_MOTION": 15.31158996, "ECCENTRICITY": 0.0006071, "INCLINATION": 97.437, "RA_OF_ASC_NODE": 88.1928, "ARG_OF_PERICENTER": 309.6899, "MEAN_ANOMALY": 50.3806, "EPHEMERIS_TYPE": 0, "CLASSIFICATION_TYPE": "U", "NORAD_CAT_ID": 58662, "ELEMENT_SET_NO": 999, "REV_AT_EPOCH": 10717, "BSTAR": 0.00038873, "MEAN_MOTION_DOT": 0.00011634, "MEAN_MOTION_DDOT": 0, "GROUP": "weather"}, "tle": {"line1": "1 58662U 23208C   25334.83758634  .00011634  00000+0  38873-3 0  9999", "line2": "2 58662  97.4370  88.1928 0006071 309.6899  50.3806 15.31158996107179"}}, "geometry": {"type": "Point", "coordinates": [87.4423073714666, 8.207908050174614]}}, {"type": "Feature", "properties": {"norad_id": 58663, "name": "TIANMU-1 22", "group": "weather", "lat": 81.89283376185817, "lon": -27.20130161994283, "alt_km": 477.3247269682779, "timestamp": "2025-12-01T03:58:49.196628+00:00", "meta": {"OBJECT_NAME": "TIANMU-1 22", "OBJECT_ID": "2023-208D", "EPOCH": "2025-11-30T19:42:42.223392", "MEAN_MOTION": 15.27289957, "ECCENTRICITY": 0.0003258, "INCLINATION": 97.4378, "RA_OF_ASC_NODE": 85.9493, "ARG_OF_PERICENTER": 341.4244, "MEAN_ANOMALY": 18.6876, "EPHEMERIS_TYPE": 0, "CLASSIFICATION_TYPE": "U", "NORAD_CAT_ID": 58663, "ELEMENT_SET_NO": 999, "REV_AT_EPOCH": 10701, "BSTAR": 0.00035622, "MEAN_MOTION_DOT": 9.453e-05, "MEAN_MOTION_DDOT": 0, "GROUP": "weather"}, "tle": {"line1": "1 58663U 23208D   25334.82132203  .00009453  00000+0  35622-3 0  9992", "line2": "2 58663  97.4378  85.9493 0003258 341.4244  18.6876 15.27289957107016"}}, "geometry": {"type": "Point", "coordinates": [-27.20130161994283, 81.89283376185817]}}, {"type": "Feature", "properties": {"norad_id": 58700, "name": "TIANMU-1 15", "group": "weather", "lat": -17.090144831662638, "lon": 158.98744259824602, "alt_km": 493.3679293027808, "timestamp": "2025-12-01T03:58:49.196641+00:00", "meta": {"OBJECT_NAME": "TIANMU-1 15", "OBJECT_ID": "2024-004A", "EPOCH": "2025-11-30T20:10:44.001120", "MEAN_MOTION": 15.2443258, "ECCENTRICITY": 0.0006003, "INCLINATION": 97.4633, "RA_OF_ASC_NODE": 156.3538, "ARG_OF_PERICENTER": 345.5188, "MEAN_ANOMALY": 14.5876, "EPHEMERIS_TYPE": 0, "CLASSIFICATION_TYPE": "U", "NORAD_CAT_ID": 58700, "ELEMENT_SET_NO": 999, "REV_AT_EPOCH": 10553, "BSTAR": 0.0003096, "MEAN_MOTION_DOT": 7.528e-05, "MEAN_MOTION_DDOT": 0, "GROUP": "weather"}, "tle": {"line1": "1 58700U 24004A   25334.84078705  .00007528  00000+0  30960-3 0  9998", "line2": "2 58700  97.4633 156.3538 0006003 345.5188  14.5876 15.24432580105537"}}, "geometry": {"type": "Point", "coordinates": [158.98744259824602, -17.090144831662638]}}, {"type": "Feature", "properties": {"norad_id": 58701, "name": "TIANMU-1 16", "group": "weather", "lat": 73.15072292811018, "lon": 130.45382372837722, "alt_km": 486.42932144323004, "timestamp": "2025-12-01T03:58:49.196651+00:00", "meta": {"OBJECT_NAME": "TIANMU-1 16", "OBJECT_ID": "2024-004B", "EPOCH": "2025-11-28T17:21:14.562144", "MEAN_MOTION": 15.24146454, "ECCENTRICITY": 0.00054689, "INCLINATION": 97.457, "RA_OF_ASC_NODE": 153.6495, "ARG_OF_PERICENTER": 351.9748, "MEAN_ANOMALY": 8.1401, "EPHEMERIS_TYPE": 0, "CLASSIFICATION_TYPE": "U", "NORAD_CAT_ID": 58701, "ELEMENT_SET_NO": 999, "REV_AT_EPOCH": 10521, "BSTAR": 5.4123761e-05, "MEAN_MOTION_DOT": 1.245e-05, "MEAN_MOTION_DDOT": 0, "GROUP": "weather"}, "tle": {"line1": "1 58701U 24004B   25332.72308521  .00001245  00000+0  54124-4 0  9995", "line2": "2 58701  97.4570 153.6495 0005468 351.9748   8.1401 15.24146454105217"}}, "geometry": {"type": "Point", "coordinates": [130.45382372837722, 73.15072292811018]}}, {"type": "Feature", "properties": {"norad_id": 58702, "name": "TIANMU-1 17", "group": "weather", "lat": 22.04934818873251, "lon": -20.47380492395303, "alt_km": 495.98796465796113, "timestamp": "2025-12-01T03:58:49.196661+00:00", "meta": {"OBJECT_NAME": "TIANMU-1 17", "OBJECT_ID": "2024-004C", "EPOCH": "2025-11-30T20:59:19.120704", "MEAN_MOTION": 15.2423077, "ECCENTRICITY": 0.000453, "INCLINATION": 97.4605, "RA_OF_ASC_NODE": 156.1938, "ARG_OF_PERICENTER": 348.3697, "MEAN_ANOMALY": 11.7435, "EPHEMERIS_TYPE": 0, "CLASSIFICATION_TYPE": "U", "NORAD_CAT_ID": 58702, "ELEMENT_SET_NO": 999, "REV_AT_EPOCH": 10553, "BSTAR": 0.00030062, "MEAN_MOTION_DOT": 7.262e-05, "MEAN_MOTION_DDOT": 0, "GROUP": "weather"}, "tle": {"line1": "1 58702U 24004C   25334.87452686  .00007262  00000+0  30062-3 0  9995", "line2": "2 58702  97.4605 156.1938 0004530 348.3697  11.7435 15.24230770105536"}}, "geometry": {"type": "Point", "coordinates": [-20.47380492395303, 22.04934818873251]}}, {"type": "Feature", "properties": {"norad_id": 58703, "name": "TIANMU-1 18", "group": "weather", "lat": -68.2880585708072, "lon": -42.54234170386415, "alt_km": 500.8152975679759, "timestamp": "2025-12-01T03:58:49.196671+00:00", "meta": {"OBJECT_NAME": "TIANMU-1 18", "OBJECT_ID": "2024-004D", "EPOCH": "2025-11-30T20:35:10.845024", "MEAN_MOTION": 15.24224547, "ECCENTRICITY": 0.0003868, "INCLINATION": 97.4623, "RA_OF_ASC_NODE": 156.3698, "ARG_OF_PERICENTER": 349.8895, "MEAN_ANOMALY": 10.2264, "EPHEMERIS_TYPE": 0, "CLASSIFICATION_TYPE": "U", "NORAD_CAT_ID": 58703, "ELEMENT_SET_NO": 999, "REV_AT_EPOCH": 10553, "BSTAR": 0.00031429, "MEAN_MOTION_DOT": 7.594e-05, "MEAN_MOTION_DDOT": 0, "GROUP": "weather"}, "tle": {"line1": "1 58703U 24004D   25334.85776441  .00007594  00000+0  31429-3 0  9998", "line2": "2 58703  97.4623 156.3698 0003868 349.8895  10.2264 15.24224547105530"}}, "geometry": {"type": "Point", "coordinates": [-42.54234170386415, -68.2880585708072]}}, {"type": "Feature", "properties": {"norad_id": 58990, "name": "INSAT-3DS", "group": "weather", "lat": -0.024203880989833223, "lon": -147.92523732307652, "alt_km": 35781.60629805817, "timestamp": "2025-12-01T03:58:49.196706+00:00", "meta": {"OBJECT_NAME": "INSAT-3DS", "OBJECT_ID": "2024-033A", "EPOCH": "2025-11-30T19:22:16.241952", "MEAN_MOTION": 1.002701, "ECCENTRICITY": 0.0001514, "INCLINATION": 0.0152, "RA_OF_ASC_NODE": 251.319, "ARG_OF_PERICENTER": 0.0274, "MEAN_ANOMALY": 191.2809, "EPHEMERIS_TYPE": 0, "CLASSIFICATION_TYPE": "U", "NORAD_CAT_ID": 58990, "ELEMENT_SET_NO": 999, "REV_AT_EPOCH": 4507, "BSTAR": 0, "MEAN_MOTION_DOT": -1.34e-06, "MEAN_MOTION_DDOT": 0, "GROUP": "weather"}, "tle": {"line1": "1 58990U 24033A   25334.80713243 -.00000134  00000+0  00000+0 0  9995", "line2": "2 58990   0.0152 251.3190 0001514   0.0274 191.2809  1.00270100 45073"}}, "geometry": {"type": "Point", "coordinates": [-147.92523732307652, -0.024203880989833223]}}, {"type": "Feature", "properties": {"norad_id": 59051, "name": "METEOR-M2 4", "group": "weather", "lat": -15.147985068716615, "lon": -65.37408219168145, "alt_km": 818.0603690226408, "timestamp": "2025-12-01T03:58:49.196722+00:00", "meta": {"OBJECT_NAME": "METEOR-M2 4", "OBJECT_ID": "2024-039A", "EPOCH": "2025-11-30T21:17:56.957856", "MEAN_MOTION": 14.22398257, "ECCENTRICITY": 0.0007663, "INCLINATION": 98.675, "RA_OF_ASC_NODE": 291.9832, "ARG_OF_PERICENTER": 31.2287, "MEAN_ANOMALY": 328.9345, "EPHEMERIS_TYPE": 0, "CLASSIFICATION_TYPE": "U", "NORAD_CAT_ID": 59051, "ELEMENT_SET_NO": 999, "REV_AT_EPOCH": 9107, "BSTAR": 4.1776e-05, "MEAN_MOTION_DOT": 4.9e-07, "MEAN_MOTION_DDOT": 0, "GROUP": "weather"}, "tle": {"line1": "1 59051U 24039A   25334.88746479  .00000049  00000+0  41776-4 0  9999", "line2": "2 59051  98.6750 291.9832 0007663  31.2287 328.9345 14.22398257 91070"}}, "geometry": {"type": "Point", "coordinates": [-65.37408219168145, -15.147985068716615]}}, {"type": "Feature", "properties": {"norad_id": 60133, "name": "GOES 19", "group": "weather", "lat": 0.015832799844199223, "lon": 54.79660728764582, "alt_km": 35788.087418734016, "timestamp": "2025-12-01T03:58:49.196822+00:00", "meta": {"OBJECT_NAME": "GOES 19", "OBJECT_ID": "2024-119A", "EPOCH": "2025-11-30T18:37:09.113088", "MEAN_MOTION": 1.0027173, "ECCENTRICITY": 0.0001078, "INCLINATION": 0.0369, "RA_OF_ASC_NODE": 120.6257, "ARG_OF_PERICENTER": 178.8679, "MEAN_ANOMALY": 334.5207, "EPHEMERIS_TYPE": 0, "CLASSIFICATION_TYPE": "U", "NORAD_CAT_ID": 60133, "ELEMENT_SET_NO": 999, "REV_AT_EPOCH": 497, "BSTAR": 0, "MEAN_MOTION_DOT": -2.27e-06, "MEAN_MOTION_DDOT": 0, "GROUP": "weather"}, "tle": {"line1": "1 60133U 24119A   25334.77579992 -.00000227  00000+0  00000+0 0  9992", "line2": "2 60133   0.0369 120.6257 0001078 178.8679 334.5207  1.00271730  4973"}}, "geometry": {"type": "Point", "coordinates": [54.79660728764582, 0.015832799844199223]}}, {"type": "Feature", "properties": {"norad_id": 65815, "name": "FENGYUN 3H", "group": "weather", "lat": -31.99165137652254, "lon": -79.53080106331421, "alt_km": 831.7822640325621, "timestamp": "2025-12-01T03:58:49.197270+00:00", "meta": {"OBJECT_NAME": "FENGYUN 3H", "OBJECT_ID": "2025-219A", "EPOCH": "2025-11-30T19:40:35.580864", "MEAN_MOTION": 14.19899212, "ECCENTRICITY": 6.73e-05, "INCLINATION": 98.6566, "RA_OF_ASC_NODE": 274.6701, "ARG_OF_PERICENTER": 66.3945, "MEAN_ANOMALY": 293.7302, "EPHEMERIS_TYPE": 0, "CLASSIFICATION_TYPE": "U", "NORAD_CAT_ID": 65815, "ELEMENT_SET_NO": 999, "REV_AT_EPOCH": 923, "BSTAR": 7.0916e-05, "MEAN_MOTION_DOT": 1.07e-06, "MEAN_MOTION_DDOT": 0, "GROUP": "weather"}, "tle": {"line1": "1 65815U 25219A   25334.81985626  .00000107  00000+0  70916-4 0  9990", "line2": "2 65815  98.6566 274.6701 0000673  66.3945 293.7302 14.19899212  9239"}}, "geometry": {"type": "Point", "coordinates": [-79.53080106331421, -31.99165137652254]}}]}